{"type": "FeatureCollection", "features": [ {"type": "Feature", "properties": {"norad_id": 66456, "name": "STARLINK-35643", "group": "last-30-days", "lat": -35.75963478911566, "lon": 81.33133211662586, "alt_km": 375.6867747756223, "timestamp": "2025-12-02T08:59:31.503238+00:00", "meta": {"OBJECT_NAME": "STARLINK-35643", "OBJECT_ID": "2025-262A", "EPOCH": "2025-12-02T04:00:03.998880", "MEAN_MOTION": 15.65842537, "ECCENTRICITY": 0.0001396, "INCLINATION": 42.9997, "RA_OF_ASC_NODE": 133.1845, "ARG_OF_PERICENTER": 267.6857, "MEAN_ANOMALY": 300.037, "EPHEMERIS_TYPE": 0, "CLASSIFICATION_TYPE": "U", "NORAD_CAT_ID": 66456, "ELEMENT_SET_NO": 999, "REV_AT_EPOCH": 393, "BSTAR": -0.023472, "MEAN_MOTION_DOT": -0.02137333, "MEAN_MOTION_DDOT": 0}, "tle": {"line1": "1 66456U 25262A   25336.16671295 -.02137333  00000+0 -23472-1 0  9992", "line2": "2 66456  42.9997 133.1845 0001396 267.6857 300.0370 15.65842537  3938"}}, "geometry": {"type": "Point", "coordinates": [81.33133211662586, -35.75963478911566]}}, {"type": "Feature", "properties": {"norad_id": 66457, "name": "STARLINK-35466", "group": "last-30-days", "lat": -34.03109612895221, "lon": 85.4864861540126, "alt_km": 375.5675180773005, "timestamp": "2025-12-02T08:59:31.503263+00:00", "meta": {"OBJECT_NAME": "STARLINK-35466", "OBJECT_ID": "2025-262B", "EPOCH": "2025-12-02T04:00:03.998880", "MEAN_MOTION": 15.65838988, "ECCENTRICITY": 0.000144, "INCLINATION": 42.9994, "RA_OF_ASC_NODE": 133.175, "ARG_OF_PERICENTER": 271.5786, "MEAN_ANOMALY": 299.9786, "EPHEMERIS_TYPE": 0, "CLASSIFICATION_TYPE": "U", "NORAD_CAT_ID": 66457, "ELEMENT_SET_NO": 999, "REV_AT_EPOCH": 393, "BSTAR": -0.023422, "MEAN_MOTION_DOT": -0.02133157, "MEAN_MOTION_DDOT": 0}, "tle": {"line1": "1 66457U 25262B   25336.16671295 -.02133157  00000+0 -23422-1 0  9998", "line2": "2 66457  42.9994 133.1750 0001440 271.5786 299.9786 15.65838988  3938"}}, "geometry": {"type": "Point", "coordinates": [85.4864861540126, -34.03109612895221]}}, {"type": "Feature", "properties": {"norad_id": 66458, "name": "STARLINK-35684", "group": "last-30-days", "lat": -34.91362616770599, "lon": 83.42927356766735, "alt_km": 375.57277040188546, "timestamp": "2025-12-02T08:59:31.503275+00:00", "meta": {"OBJECT_NAME": "STARLINK-35684", "OBJECT_ID": "2025-262C", "EPOCH": "2025-12-02T04:00:03.998880", "MEAN_MOTION": 15.65843493, "ECCENTRICITY": 0.00015, "INCLINATION": 42.9996, "RA_OF_ASC_NODE": 133.1793, "ARG_OF_PERICENTER": 269.9389, "MEAN_ANOMALY": 299.6981, "EPHEMERIS_TYPE": 0, "CLASSIFICATION_TYPE": "U", "NORAD_CAT_ID": 66458, "ELEMENT_SET_NO": 999, "REV_AT_EPOCH": 393, "BSTAR": -0.023476, "MEAN_MOTION_DOT": -0.02137816, "MEAN_MOTION_DDOT": 0}, "tle": {"line1": "1 66458U 25262C   25336.16671295 -.02137816  00000+0 -23476-1 0  9994", "line2": "2 66458  42.9996 133.1793 0001500 269.9389 299.6981 15.65843493  3936"}}, "geometry": {"type": "Point", "coordinates": [83.42927356766735, -34.91362616770599]}}, {"type": "Feature", "properties": {"norad_id": 66459, "name": "STARLINK-35449", "group": "last-30-days", "lat": -33.1145061678499, "lon": 87.50096643085718, "alt_km": 375.5932187834378, "timestamp": "2025-12-02T08:59:31.503289+00:00", "meta": {"OBJECT_NAME": "STARLINK-35449", "OBJECT_ID": "2025-262D", "EPOCH": "2025-12-02T04:00:03.998880", "MEAN_MOTION": 15.65843489, "ECCENTRICITY": 0.0001409, "INCLINATION": 42.9996, "RA_OF_ASC_NODE": 133.1696, "ARG_OF_PERICENTER": 267.74, "MEAN_ANOMALY": 305.7321, "EPHEMERIS_TYPE": 0, "CLASSIFICATION_TYPE": "U", "NORAD_CAT_ID": 66459, "ELEMENT_SET_NO": 999, "REV_AT_EPOCH": 393, "BSTAR": -0.023476, "MEAN_MOTION_DOT": -0.02137722, "MEAN_MOTION_DDOT": 0}, "tle": {"line1": "1 66459U 25262D   25336.16671295 -.02137722  00000+0 -23476-1 0  9991", "line2": "2 66459  42.9996 133.1696 0001409 267.7400 305.7321 15.65843489  3939"}}, "geometry": {"type": "Point", "coordinates": [87.50096643085718, -33.1145061678499]}}, {"type": "Feature", "properties": {"norad_id": 66460, "name": "STARLINK-35424", "group": "last-30-days", "lat": -32.165532653044394, "lon": 89.47414480037871, "alt_km": 375.58148486330174, "timestamp": "2025-12-02T08:59:31.503300+00:00", "meta": {"OBJECT_NAME": "STARLINK-35424", "OBJECT_ID": "2025-262E", "EPOCH": "2025-12-02T04:00:03.998880", "MEAN_MOTION": 15.65839605, "ECCENTRICITY": 0.0001427, "INCLINATION": 42.9994, "RA_OF_ASC_NODE": 133.1651, "ARG_OF_PERICENTER": 265.8663, "MEAN_ANOMALY": 309.5259, "EPHEMERIS_TYPE": 0, "CLASSIFICATION_TYPE": "U", "NORAD_CAT_ID": 66460, "ELEMENT_SET_NO": 999, "REV_AT_EPOCH": 393, "BSTAR": -0.02343, "MEAN_MOTION_DOT": -0.02133798, "MEAN_MOTION_DDOT": 0}, "tle": {"line1": "1 66460U 25262E   25336.16671295 -.02133798  00000+0 -23430-1 0  9992", "line2": "2 66460  42.9994 133.1651 0001427 265.8663 309.5259 15.65839605  3937"}}, "geometry": {"type": "Point", "coordinates": [89.47414480037871, -32.165532653044394]}}, {"type": "Feature", "properties": {"norad_id": 66461, "name": "STARLINK-35132", "group": "last-30-days", "lat": -31.18683109284856, "lon": 91.40575602825604, "alt_km": 375.5587911725888, "timestamp": "2025-12-02T08:59:31.503310+00:00", "meta": {"OBJECT_NAME": "STARLINK-35132", "OBJECT_ID": "2025-262F", "EPOCH": "2025-12-02T04:00:03.998880", "MEAN_MOTION": 15.65843672, "ECCENTRICITY": 0.0001391, "INCLINATION": 42.9996, "RA_OF_ASC_NODE": 133.1605, "ARG_OF_PERICENTER": 266.068, "MEAN_ANOMALY": 311.241, "EPHEMERIS_TYPE": 0, "CLASSIFICATION_TYPE": "U", "NORAD_CAT_ID": 66461, "ELEMENT_SET_NO": 999, "REV_AT_EPOCH": 393, "BSTAR": -0.023503, "MEAN_MOTION_DOT": -0.02139905, "MEAN_MOTION_DDOT": 0}, "tle": {"line1": "1 66461U 25262F   25336.16671295 -.02139905  00000+0 -23503-1 0  9990", "line2": "2 66461  42.9996 133.1605 0001391 266.0680 311.2410 15.65843672  3939"}}, "geometry": {"type": "Point", "coordinates": [91.40575602825604, -31.18683109284856]}}, {"type": "Feature", "properties": {"norad_id": 66462, "name": "STARLINK-35499", "group": "last-30-days", "lat": -30.179550665274874, "lon": 93.29635017359065, "alt_km": 375.5271901882579, "timestamp": "2025-12-02T08:59:31.503320+00:00", "meta": {"OBJECT_NAME": "STARLINK-35499", "OBJECT_ID": "2025-262G", "EPOCH": "2025-12-02T04:00:03.998880", "MEAN_MOTION": 15.65844972, "ECCENTRICITY": 0.0001392, "INCLINATION": 42.9997, "RA_OF_ASC_NODE": 133.1549, "ARG_OF_PERICENTER": 265.5497, "MEAN_ANOMALY": 313.6772, "EPHEMERIS_TYPE": 0, "CLASSIFICATION_TYPE": "U", "NORAD_CAT_ID": 66462, "ELEMENT_SET_NO": 999, "REV_AT_EPOCH": 393, "BSTAR": -0.023535, "MEAN_MOTION_DOT": -0.02142503, "MEAN_MOTION_DDOT": 0}, "tle": {"line1": "1 66462U 25262G   25336.16671295 -.02142503  00000+0 -23535-1 0  9994", "line2": "2 66462  42.9997 133.1549 0001392 265.5497 313.6772 15.65844972  3930"}}, "geometry": {"type": "Point", "coordinates": [93.29635017359065, -30.179550665274874]}}, {"type": "Feature", "properties": {"norad_id": 66463, "name": "STARLINK-35463", "group": "last-30-days", "lat": -28.089845578833362, "lon": 96.95784376520342, "alt_km": 375.42503148635205, "timestamp": "2025-12-02T08:59:31.503330+00:00", "meta": {"OBJECT_NAME": "STARLINK-35463", "OBJECT_ID": "2025-262H", "EPOCH": "2025-12-02T04:00:03.998880", "MEAN_MOTION": 15.65837928, "ECCENTRICITY": 0.0001378, "INCLINATION": 42.9997, "RA_OF_ASC_NODE": 133.1452, "ARG_OF_PERICENTER": 267.3201, "MEAN_ANOMALY": 315.7408, "EPHEMERIS_TYPE": 0, "CLASSIFICATION_TYPE": "U", "NORAD_CAT_ID": 66463, "ELEMENT_SET_NO": 999, "REV_AT_EPOCH": 393, "BSTAR": -0.023396, "MEAN_MOTION_DOT": -0.0213099, "MEAN_MOTION_DDOT": 0}, "tle": {"line1": "1 66463U 25262H   25336.16671295 -.02130990  00000+0 -23396-1 0  9997", "line2": "2 66463  42.9997 133.1452 0001378 267.3201 315.7408 15.65837928  3933"}}, "geometry": {"type": "Point", "coordinates": [96.95784376520342, -28.089845578833362]}}, {"type": "Feature", "properties": {"norad_id": 66464, "name": "STARLINK-35435", "group": "last-30-days", "lat": -29.147357442153137, "lon": 95.1457420266827, "alt_km": 375.4505702603574, "timestamp": "2025-12-02T08:59:31.503340+00:00", "meta": {"OBJECT_NAME": "STARLINK-35435", "OBJECT_ID": "2025-262J", "EPOCH": "2025-12-02T04:00:03.998880", "MEAN_MOTION": 15.65841799, "ECCENTRICITY": 0.0001388, "INCLINATION": 42.9995, "RA_OF_ASC_NODE": 133.1506, "ARG_OF_PERICENTER": 268.292, "MEAN_ANOMALY": 312.8518, "EPHEMERIS_TYPE": 0, "CLASSIFICATION_TYPE": "U", "NORAD_CAT_ID": 66464, "ELEMENT_SET_NO": 999, "REV_AT_EPOCH": 393, "BSTAR": -0.02348, "MEAN_MOTION_DOT": -0.02137903, "MEAN_MOTION_DDOT": 0}, "tle": {"line1": "1 66464U 25262J   25336.16671295 -.02137903  00000+0 -23480-1 0  9993", "line2": "2 66464  42.9995 133.1506 0001388 268.2920 312.8518 15.65841799  3932"}}, "geometry": {"type": "Point", "coordinates": [95.1457420266827, -29.147357442153137]}}, {"type": "Feature", "properties": {"norad_id": 66465, "name": "STARLINK-35448", "group": "last-30-days", "lat": -25.903428903789273, "lon": 100.48044612631992, "alt_km": 375.31269428597625, "timestamp": "2025-12-02T08:59:31.503350+00:00", "meta": {"OBJECT_NAME": "STARLINK-35448", "OBJECT_ID": "2025-262K", "EPOCH": "2025-12-02T04:00:03.998880", "MEAN_MOTION": 15.65842327, "ECCENTRICITY": 0.0001468, "INCLINATION": 42.9994, "RA_OF_ASC_NODE": 133.1359, "ARG_OF_PERICENTER": 265.3255, "MEAN_ANOMALY": 321.5666, "EPHEMERIS_TYPE": 0, "CLASSIFICATION_TYPE": "U", "NORAD_CAT_ID": 66465, "ELEMENT_SET_NO": 999, "REV_AT_EPOCH": 393, "BSTAR": -0.023458, "MEAN_MOTION_DOT": -0.02136305, "MEAN_MOTION_DDOT": 0}, "tle": {"line1": "1 66465U 25262K   25336.16671295 -.02136305  00000+0 -23458-1 0  9994", "line2": "2 66465  42.9994 133.1359 0001468 265.3255 321.5666 15.65842327  3935"}}, "geometry": {"type": "Point", "coordinates": [100.48044612631992, -25.903428903789273]}}]}